[{"OBJECT_NAME":"STARLINK-31798","OBJECT_ID":"2024-082E","EPOCH":"2026-03-09T06:27:34.526304","MEAN_MOTION":15.27569587,"ECCENTRICITY":0.00010215,"INCLINATION":43.0027,"RA_OF_ASC_NODE":142.5253,"ARG_OF_PERICENTER":256.0206,"MEAN_ANOMALY":104.0533,"EPHEMERIS_TYPE":0,"CLASSIFICATION_TYPE":"U","NORAD_CAT_ID":59635,"ELEMENT_SET_NO":999,"REV_AT_EPOCH":10474,"BSTAR":-8.255374e-5,"MEAN_MOTION_DOT":-2.532e-5,"MEAN_MOTION_DDOT":0},{"OBJECT_NAME":"STARLINK-36554","OBJECT_ID":"2026-012K","EPOCH":"2026-03-08T17:06:15.871680","MEAN_MOTION":15.27591469,"ECCENTRICITY":6.955e-5,"INCLINATION":42.9934,"RA_OF_ASC_NODE":319.8184,"ARG_OF_PERICENTER":339.2059,"MEAN_ANOMALY":20.8765,"EPHEMERIS_TYPE":0,"CLASSIFICATION_TYPE":"U","NORAD_CAT_ID":67502,"ELEMENT_SET_NO":999,"REV_AT_EPOCH":761,"BSTAR":0.0011969118,"MEAN_MOTION_DOT":0.00032833,"MEAN_MOTION_DDOT":0}]
